1  8820U 76039A   03040.80402267 -.00000012 +00000-0 +10000-3 0  9997
2  8820 109.8298 137.9861 0044316 328.7331 031.0711 06.38664649368920
1  8820U 76039A   03041.74356980 -.00000011 +00000-0 +10000-3 0  9990
2  8820 109.8298 138.3079 0044347 328.5227 031.2794 06.38664638368989
1  8820U 76039A   03042.83970795 -.00000010 +00000-0 +10000-3 0  9996
2  8820 109.8297 138.6835 0044335 328.2799 031.5205 06.38664636369056
1  8820U 76039A   03043.77925505 -.00000007 +00000-0 +10000-3 0  9995
2  8820 109.8296 139.0055 0044321 328.0724 031.7270 06.38664633369113
1  8820U 76039A   03044.71880252 -.00000004 +00000-0 +10000-3 0  9996
2  8820 109.8294 139.3273 0044320 327.8782 031.9206 06.38664631369171
1  8820U 76039A   03045.81494115 -.00000000 +00000-0 +10000-3 0  9993
2  8820 109.8294 139.7029 0044306 327.6630 032.1355 06.38664631369244
1  8820U 76039A   03046.75448900 +.00000003 +00000-0 +10000-3 0  9990
2  8820 109.8294 140.0248 0044306 327.4971 032.3012 06.38664616369300
1  8820U 76039A   03047.69403682 +.00000005 +00000-0 +10000-3 0  9994
2  8820 109.8293 140.3467 0044289 327.2317 032.5657 06.38664595369366
1  8820U 76039A   03048.79017609 +.00000006 +00000-0 +10000-3 0  9997
2  8820 109.8290 140.7220 0044267 326.9422 032.8542 06.38664578369438
1  8820U 76039A   03049.72972335 +.00000006 +00000-0 +10000-3 0  9997
2  8820 109.8290 141.0441 0044258 326.7434 033.0520 06.38664565369499
1  8820U 76039A   03050.82586110 +.00000003 +00000-0 +10000-3 0  9999
2  8820 109.8286 141.4198 0044243 326.4985 033.2950 06.38664569369560
1  8820U 76039A   03051.76540813 -.00000000 +00000-0 +10000-3 0  9991
2  8820 109.8285 141.7417 0044249 326.3252 033.4663 06.38664565369624
1  8820U 76039A   03052.70495499 -.00000005 +00000-0 +10000-3 0  9990
2  8820 109.8286 142.0637 0044236 326.1272 033.6619 06.38664545369686
1  8820U 76039A   03053.80109259 -.00000010 +00000-0 +10000-3 0  9994
2  8820 109.8272 142.4400 0044099 325.8750 033.9122 06.38664652369756
1  8820U 76039A   03054.74063962 -.00000013 +00000-0 +10000-3 0  9991
2  8820 109.8272 142.7616 0044209 325.7060 034.0779 06.38664612369817
1  8820U 76039A   03055.68018646 -.00000015 +00000-0 +10000-3 0  9996
2  8820 109.8273 143.0835 0044201 325.5004 034.2814 06.38664612369871
1 08820U 76039A   03040.33424944 -.00000011  00000-0  10000-3 0  9990
2 08820 109.8299 137.8252 0044320 328.8306 030.9749 06.38664647368895
1 08820U 76039A   03053.17472838 -.00000007  00000-0  10000-3 0  9996
2 08820 109.8285 142.2246 0044234 326.0271 033.7607 06.38664544369710